[{"COMMENT":"GENERATED VIA SPACETRACK.ORG API","ORIGINATOR":"18 SPCS","NORAD_CAT_ID":"43477","OBJECT_NAME":"GRACE-FO 2","OBJECT_TYPE":"PAYLOAD","CLASSIFICATION_TYPE":"U","INTLDES":"18047B","EPOCH":"2023-11-02 14:08:47","EPOCH_MICROSECONDS":"194368","MEAN_MOTION":"15.27215576","ECCENTRICITY":"0.0011729","INCLINATION":"88.9826","RA_OF_ASC_NODE":"330.359","ARG_OF_PERICENTER":"214.3487","MEAN_ANOMALY":"145.7005","EPHEMERIS_TYPE":"0","ELEMENT_SET_NO":"999","REV_AT_EPOCH":"30311","BSTAR":"0.00014223","MEAN_MOTION_DOT":"0.00003827","MEAN_MOTION_DDOT":"0","FILE":"4066590","TLE_LINE0":"0 GRACE-FO 2","TLE_LINE1":"1 43477U 18047B   23306.58943512  .00003827  00000-0  14223-3 0  9991","TLE_LINE2":"2 43477  88.9826 330.3590 0011729 214.3487 145.7005 15.27215576303111","OBJECT_ID":"2018-047B","OBJECT_NUMBER":"43477","SEMIMAJOR_AXIS":"6862.278","PERIOD":"94.289","APOGEE":"492.191","PERIGEE":"476.094","DECAYED":"0"},{"COMMENT":"GENERATED VIA SPACETRACK.ORG API","ORIGINATOR":"18 SPCS","NORAD_CAT_ID":"43477","OBJECT_NAME":"GRACE-FO 2","OBJECT_TYPE":"PAYLOAD","CLASSIFICATION_TYPE":"U","INTLDES":"18047B","EPOCH":"2023-11-02 22:00:33","EPOCH_MICROSECONDS":"786144","MEAN_MOTION":"15.27218083","ECCENTRICITY":"0.0011788","INCLINATION":"88.9827","RA_OF_ASC_NODE":"330.3142","ARG_OF_PERICENTER":"212.8804","MEAN_ANOMALY":"147.1713","EPHEMERIS_TYPE":"0","ELEMENT_SET_NO":"999","REV_AT_EPOCH":"30316","BSTAR":"0.00013954","MEAN_MOTION_DOT":"0.00003755","MEAN_MOTION_DDOT":"0","FILE":"4067000","TLE_LINE0":"0 GRACE-FO 2","TLE_LINE1":"1 43477U 18047B   23306.91705771  .00003755  00000-0  13954-3 0  9991","TLE_LINE2":"2 43477  88.9827 330.3142 0011788 212.8804 147.1713 15.27218083303169","OBJECT_ID":"2018-047B","OBJECT_NUMBER":"43477","SEMIMAJOR_AXIS":"6862.270","PERIOD":"94.289","APOGEE":"492.224","PERIGEE":"476.046","DECAYED":"0"},{"COMMENT":"GENERATED VIA SPACETRACK.ORG API","ORIGINATOR":"18 SPCS","NORAD_CAT_ID":"43477","OBJECT_NAME":"GRACE-FO 2","OBJECT_TYPE":"PAYLOAD","CLASSIFICATION_TYPE":"U","INTLDES":"18047B","EPOCH":"2023-11-03 04:17:59","EPOCH_MICROSECONDS":"15328","MEAN_MOTION":"15.27220527","ECCENTRICITY":"0.0011832","INCLINATION":"88.9828","RA_OF_ASC_NODE":"330.2783","ARG_OF_PERICENTER":"211.7421","MEAN_ANOMALY":"148.3116","EPHEMERIS_TYPE":"0","ELEMENT_SET_NO":"999","REV_AT_EPOCH":"30320","BSTAR":"0.00014204","MEAN_MOTION_DOT":"0.00003822","MEAN_MOTION_DDOT":"0","FILE":"4067296","TLE_LINE0":"0 GRACE-FO 2","TLE_LINE1":"1 43477U 18047B   23307.17915527  .00003822  00000-0  14204-3 0  9996","TLE_LINE2":"2 43477  88.9828 330.2783 0011832 211.7421 148.3116 15.27220527303204","OBJECT_ID":"2018-047B","OBJECT_NUMBER":"43477","SEMIMAJOR_AXIS":"6862.263","PERIOD":"94.289","APOGEE":"492.247","PERIGEE":"476.008","DECAYED":"0"},{"COMMENT":"GENERATED VIA SPACETRACK.ORG API","ORIGINATOR":"18 SPCS","NORAD_CAT_ID":"43477","OBJECT_NAME":"GRACE-FO 2","OBJECT_TYPE":"PAYLOAD","CLASSIFICATION_TYPE":"U","INTLDES":"18047B","EPOCH":"2023-11-03 13:44:06","EPOCH_MICROSECONDS":"817632","MEAN_MOTION":"15.27224437","ECCENTRICITY":"0.0011897","INCLINATION":"88.9828","RA_OF_ASC_NODE":"330.2245","ARG_OF_PERICENTER":"209.999","MEAN_ANOMALY":"150.0579","EPHEMERIS_TYPE":"0","ELEMENT_SET_NO":"999","REV_AT_EPOCH":"30326","BSTAR":"0.00015577","MEAN_MOTION_DOT":"0.00004189","MEAN_MOTION_DDOT":"0","FILE":"4068165","TLE_LINE0":"0 GRACE-FO 2","TLE_LINE1":"1 43477U 18047B   23307.57230113  .00004189  00000-0  15577-3 0  9992","TLE_LINE2":"2 43477  88.9828 330.2245 0011897 209.9990 150.0579 15.27224437303261","OBJECT_ID":"2018-047B","OBJECT_NUMBER":"43477","SEMIMAJOR_AXIS":"6862.251","PERIOD":"94.289","APOGEE":"492.280","PERIGEE":"475.952","DECAYED":"0"},{"COMMENT":"GENERATED VIA SPACETRACK.ORG API","ORIGINATOR":"18 SPCS","NORAD_CAT_ID":"43477","OBJECT_NAME":"GRACE-FO 2","OBJECT_TYPE":"PAYLOAD","CLASSIFICATION_TYPE":"U","INTLDES":"18047B","EPOCH":"2023-11-03 21:35:53","EPOCH_MICROSECONDS":"270304","MEAN_MOTION":"15.27226852","ECCENTRICITY":"0.0011955","INCLINATION":"88.9829","RA_OF_ASC_NODE":"330.1797","ARG_OF_PERICENTER":"208.5495","MEAN_ANOMALY":"151.5101","EPHEMERIS_TYPE":"0","ELEMENT_SET_NO":"999","REV_AT_EPOCH":"30331","BSTAR":"0.00015405","MEAN_MOTION_DOT":"0.00004144","MEAN_MOTION_DDOT":"0","FILE":"4068824","TLE_LINE0":"0 GRACE-FO 2","TLE_LINE1":"1 43477U 18047B   23307.89992211  .00004144  00000-0  15405-3 0  9992","TLE_LINE2":"2 43477  88.9829 330.1797 0011955 208.5495 151.5101 15.27226852303319","OBJECT_ID":"2018-047B","OBJECT_NUMBER":"43477","SEMIMAJOR_AXIS":"6862.244","PERIOD":"94.289","APOGEE":"492.313","PERIGEE":"475.905","DECAYED":"0"},{"COMMENT":"GENERATED VIA SPACETRACK.ORG API","ORIGINATOR":"18 SPCS","NORAD_CAT_ID":"43477","OBJECT_NAME":"GRACE-FO 2","OBJECT_TYPE":"PAYLOAD","CLASSIFICATION_TYPE":"U","INTLDES":"18047B","EPOCH":"2023-11-04 10:10:43","EPOCH_MICROSECONDS":"484160","MEAN_MOTION":"15.27231493","ECCENTRICITY":"0.0012036","INCLINATION":"88.983","RA_OF_ASC_NODE":"330.108","ARG_OF_PERICENTER":"206.2943","MEAN_ANOMALY":"153.7697","EPHEMERIS_TYPE":"0","ELEMENT_SET_NO":"999","REV_AT_EPOCH":"30339","BSTAR":"0.00016188","MEAN_MOTION_DOT":"0.00004354","MEAN_MOTION_DDOT":"0","FILE":"4069850","TLE_LINE0":"0 GRACE-FO 2","TLE_LINE1":"1 43477U 18047B   23308.42411440  .00004354  00000-0  16188-3 0  9994","TLE_LINE2":"2 43477  88.9830 330.1080 0012036 206.2943 153.7697 15.27231493303399","OBJECT_ID":"2018-047B","OBJECT_NUMBER":"43477","SEMIMAJOR_AXIS":"6862.230","PERIOD":"94.288","APOGEE":"492.354","PERIGEE":"475.835","DECAYED":"0"},{"COMMENT":"GENERATED VIA SPACETRACK.ORG API","ORIGINATOR":"18 SPCS","NORAD_CAT_ID":"43477","OBJECT_NAME":"GRACE-FO 2","OBJECT_TYPE":"PAYLOAD","CLASSIFICATION_TYPE":"U","INTLDES":"18047B","EPOCH":"2023-11-04 13:19:26","EPOCH_MICROSECONDS":"13216","MEAN_MOTION":"15.2723286","ECCENTRICITY":"0.0012059","INCLINATION":"88.983","RA_OF_ASC_NODE":"330.0901","ARG_OF_PERICENTER":"205.7303","MEAN_ANOMALY":"154.3347","EPHEMERIS_TYPE":"0","ELEMENT_SET_NO":"999","REV_AT_EPOCH":"30341","BSTAR":"0.00016603","MEAN_MOTION_DOT":"0.00004465","MEAN_MOTION_DDOT":"0","FILE":"4070271","TLE_LINE0":"0 GRACE-FO 2","TLE_LINE1":"1 43477U 18047B   23308.55516219  .00004465  00000-0  16603-3 0  9993","TLE_LINE2":"2 43477  88.9830 330.0901 0012059 205.7303 154.3347 15.27232860303410","OBJECT_ID":"2018-047B","OBJECT_NUMBER":"43477","SEMIMAJOR_AXIS":"6862.226","PERIOD":"94.288","APOGEE":"492.366","PERIGEE":"475.816","DECAYED":"0"},{"COMMENT":"GENERATED VIA SPACETRACK.ORG API","ORIGINATOR":"18 SPCS","NORAD_CAT_ID":"43477","OBJECT_NAME":"GRACE-FO 2","OBJECT_TYPE":"PAYLOAD","CLASSIFICATION_TYPE":"U","INTLDES":"18047B","EPOCH":"2023-11-04 22:45:33","EPOCH_MICROSECONDS":"529536","MEAN_MOTION":"15.27237541","ECCENTRICITY":"0.0012133","INCLINATION":"88.9829","RA_OF_ASC_NODE":"330.0364","ARG_OF_PERICENTER":"204.0729","MEAN_ANOMALY":"155.9955","EPHEMERIS_TYPE":"0","ELEMENT_SET_NO":"999","REV_AT_EPOCH":"30347","BSTAR":"0.00018499","MEAN_MOTION_DOT":"0.00004972","MEAN_MOTION_DDOT":"0","FILE":"4070865","TLE_LINE0":"0 GRACE-FO 2","TLE_LINE1":"1 43477U 18047B   23308.94830474  .00004972  00000-0  18499-3 0  9996","TLE_LINE2":"2 43477  88.9829 330.0364 0012133 204.0729 155.9955 15.27237541303477","OBJECT_ID":"2018-047B","OBJECT_NUMBER":"43477","SEMIMAJOR_AXIS":"6862.212","PERIOD":"94.288","APOGEE":"492.403","PERIGEE":"475.751","DECAYED":"0"},{"COMMENT":"GENERATED VIA SPACETRACK.ORG API","ORIGINATOR":"18 SPCS","NORAD_CAT_ID":"43477","OBJECT_NAME":"GRACE-FO 2","OBJECT_TYPE":"PAYLOAD","CLASSIFICATION_TYPE":"U","INTLDES":"18047B","EPOCH":"2023-11-05 11:20:23","EPOCH_MICROSECONDS":"418528","MEAN_MOTION":"15.27244007","ECCENTRICITY":"0.0012243","INCLINATION":"88.9829","RA_OF_ASC_NODE":"329.9647","ARG_OF_PERICENTER":"201.8132","MEAN_ANOMALY":"158.2598","EPHEMERIS_TYPE":"0","ELEMENT_SET_NO":"999","REV_AT_EPOCH":"30355","BSTAR":"0.00022172","MEAN_MOTION_DOT":"0.00005955","MEAN_MOTION_DDOT":"0","FILE":"4071569","TLE_LINE0":"0 GRACE-FO 2","TLE_LINE1":"1 43477U 18047B   23309.47249327  .00005955  00000-0  22172-3 0  9991","TLE_LINE2":"2 43477  88.9829 329.9647 0012243 201.8132 158.2598 15.27244007303556","OBJECT_ID":"2018-047B","OBJECT_NUMBER":"43477","SEMIMAJOR_AXIS":"6862.192","PERIOD":"94.287","APOGEE":"492.459","PERIGEE":"475.656","DECAYED":"0"},{"COMMENT":"GENERATED VIA SPACETRACK.ORG API","ORIGINATOR":"18 SPCS","NORAD_CAT_ID":"43477","OBJECT_NAME":"GRACE-FO 2","OBJECT_TYPE":"PAYLOAD","CLASSIFICATION_TYPE":"U","INTLDES":"18047B","EPOCH":"2023-11-05 12:54:44","EPOCH_MICROSECONDS":"629920","MEAN_MOTION":"15.27243842","ECCENTRICITY":"0.0012257","INCLINATION":"88.9829","RA_OF_ASC_NODE":"329.9557","ARG_OF_PERICENTER":"201.5426","MEAN_ANOMALY":"158.5309","EPHEMERIS_TYPE":"0","ELEMENT_SET_NO":"999","REV_AT_EPOCH":"30356","BSTAR":"0.00020218","MEAN_MOTION_DOT":"0.00005433","MEAN_MOTION_DDOT":"0","FILE":"4072138","TLE_LINE0":"0 GRACE-FO 2","TLE_LINE1":"1 43477U 18047B   23309.53801655  .00005433  00000-0  20218-3 0  9996","TLE_LINE2":"2 43477  88.9829 329.9557 0012257 201.5426 158.5309 15.27243842303564","OBJECT_ID":"2018-047B","OBJECT_NUMBER":"43477","SEMIMAJOR_AXIS":"6862.193","PERIOD":"94.287","APOGEE":"492.469","PERIGEE":"475.647","DECAYED":"0"}]